IRIDIUM 144             
1 43249U 18030A   24075.47369917  .00000099  00000+0  28340-4 0  9996
2 43249  86.3909 274.6469 0002152  89.6443 270.4999 14.34218091312077
IRIDIUM 149             
1 43250U 18030B   24075.48004422  .00000127  00000+0  38391-4 0  9995
2 43250  86.3908 274.6204 0002203  86.2099 273.9348 14.34218110312092
IRIDIUM 157             
1 43251U 18030C   24075.91767706  .00000010  00000+0 -36118-5 0  9993
2 43251  86.3909 274.4721 0001829  90.0099 270.1306 14.34216997312131
IRIDIUM 140             
1 43252U 18030D   24075.93670702  .00000026  00000+0  20440-5 0  9992
2 43252  86.3910 274.4787 0002432  92.9374 267.2100 14.34217396312193
IRIDIUM 145             
1 43253U 18030E   24075.92402132  .00000104  00000+0  30097-4 0  9997
2 43253  86.3909 274.4580 0002394  86.4708 273.6761 14.34217432312127
IRIDIUM 146             
1 43254U 18030F   24075.90499469  .00000017  00000+0 -86867-6 0  9997
2 43254  86.3911 274.4811 0002271  85.8599 274.2856 14.34217725312131
IRIDIUM 148             
1 43255U 18030G   24075.94305076  .00000096  00000+0  27065-4 0  9991
2 43255  86.3911 274.4959 0002103  80.7653 279.3781 14.34218228312170
IRIDIUM 142             
1 43256U 18030H   24075.91133593  .00000105  00000+0  30372-4 0  9998
2 43256  86.3908 274.4280 0002247  84.5283 275.6169 14.34218026312135
